QIANFAN-17              
1 60395U 24140S   25284.29729791  .00000022  00000+0  15933-4 0  9999
2 60395  88.9756 305.9037 0015957  33.4704 326.7453 13.50972875 59701
QIANFAN-18              
1 60396U 24140T   25284.35080087  .00000029  00000+0  26902-4 0  9990
2 60396  88.9751 305.4363 0014689  17.2549 342.9099 13.50974378 59102
QIANFAN-19              
1 61552U 24185A   25284.32151785  .00000646  00000+0  33130-3 0  9990
2 61552  88.9766  85.0908 0008432 134.1465 226.0416 14.14193880 60844
QIANFAN-20              
1 61553U 24185B   25284.32574148  .00000640  00000+0  36353-3 0  9997
2 61553  88.9760  85.3514 0006147 162.4059 197.7339 14.08743631 60700
QIANFAN-21              
1 61554U 24185C   25284.28730153  .00000884  00000+0  38995-3 0  9997
2 61554  88.9680  84.2914 0009992 195.6667 164.4217 14.22472375 61097
QIANFAN-22              
1 61555U 24185D   25284.35441616  .00000247  00000+0  20208-3 0  9990
2 61555  88.9746  86.0789 0006846 169.1269 191.0052 13.86269172 60292
QIANFAN-23              
1 61556U 24185E   25284.31422012  .00000834  00000+0  41464-3 0  9995
2 61556  88.9757  84.9305 0008936 145.2744 214.9029 14.16187240 60918
QIANFAN-24              
1 61557U 24185F   25284.34281736  .00000950  00000+0  41018-3 0  9999
2 61557  88.9740  84.4342 0011173 133.7597 226.4522 14.23678579 61142
